[{"OBJECT_NAME":"SHIJIAN-6 03B (SJ-6 03B)","OBJECT_ID":"2008-053B","EPOCH":"2026-03-09T23:28:00.216192","MEAN_MOTION":15.03879314,"ECCENTRICITY":0.00200774,"INCLINATION":97.8673,"RA_OF_ASC_NODE":87.2117,"ARG_OF_PERICENTER":21.0315,"MEAN_ANOMALY":339.1731,"EPHEMERIS_TYPE":0,"CLASSIFICATION_TYPE":"U","NORAD_CAT_ID":33409,"ELEMENT_SET_NO":999,"REV_AT_EPOCH":94783,"BSTAR":0.00032650966,"MEAN_MOTION_DOT":4.452e-5,"MEAN_MOTION_DDOT":0},{"OBJECT_NAME":"STARLINK-4325","OBJECT_ID":"2022-077AB","EPOCH":"2026-03-09T23:12:40.252320","MEAN_MOTION":15.05644956,"ECCENTRICITY":0.00014527,"INCLINATION":97.6025,"RA_OF_ASC_NODE":251.5,"ARG_OF_PERICENTER":87.0821,"MEAN_ANOMALY":273.0572,"EPHEMERIS_TYPE":0,"CLASSIFICATION_TYPE":"U","NORAD_CAT_ID":53068,"ELEMENT_SET_NO":999,"REV_AT_EPOCH":20102,"BSTAR":9.019798e-6,"MEAN_MOTION_DOT":6.9e-7,"MEAN_MOTION_DDOT":0}]
